NUSAT-26 (M SOMERVILLE) 
1 52184U 22033AD  26193.47416888  .00016301  00000+0  36893-3 0  9999
2 52184  97.2347 272.3722 0006863 145.7110 214.4582 15.43184309108600
NUSAT-33 (ALBANIA-2)    
1 55047U 23001AQ  26193.42230919  .00005343  00000+0  19683-3 0  9992
2 55047  97.3064 253.8452 0005038 327.2798  32.8129 15.28234810196167
NUSAT-35 (WILLIAMINA)   
1 55048U 23001AR  26193.51540919  .00008258  00000+0  23905-3 0  9997
2 55048  97.1844 245.6299 0010780  19.7103 340.4556 15.35779407196293
NUSAT-39 (TIKVAH ALPER) 
1 56201U 23054Z   26193.52572677  .00018107  00000+0  34885-3 0  9997
2 56201  97.3103 103.5315 0002258 338.4174  21.6981 15.47921910182371
NUSAT-38 (MARIA AGNESI) 
1 56202U 23054AA  26193.52600134  .00022863  00000+0  39309-3 0  9998
2 56202  97.3041 104.2568 0009192 338.8585  21.2286 15.51082439182435
NUSAT-37 (JOAN CLARKE)  
1 56203U 23054AB  26193.53428927  .00035358  00000+0  44684-3 0  9993
2 56203  97.2613 101.1265 0007495 151.4608 208.7060 15.59434033182597
NUSAT-40 (C SHOEMAKER)  
1 56943U 23084M   26193.31427655  .00111311  00000+0  54850-3 0  9990
2 56943  97.4851 341.9228 0004158 191.8305 168.2866 15.81814758172776
NUSAT-41 (C PAYNE-G)    
1 56944U 23084N   26193.56659911  .00006662  00000+0  23116-3 0  9993
2 56944  97.5540 330.6908 0006262 221.4213 138.6553 15.30118886171663
NUSAT-42 (M WONENBURGER)
1 56966U 23084AL  26193.47464303  .00013876  00000+0  28185-3 0  9992
2 56966  97.5737 338.6696 0006629 154.6854 205.4721 15.46431425171981
NUSAT-44 (MARIA MITCHE*)
1 59122U 24043AA  26193.52188331  .00006416  00000+0  22480-3 0  9999
2 59122  97.5472 334.1725 0006328 139.2130 220.9584 15.29815833131143
NUSAT-50 (NANCY ROMAN)  
1 60493U 24149AB  26192.75835772  .00005574  00000+0  19287-3 0  9996
2 60493  97.3788 273.8483 0004797 109.7842 250.3916 15.30280412105883
NUSAT-48 (HENRIETTA LE*)
1 60498U 24149AG  26192.68188339  .00004991  00000+0  17322-3 0  9993
2 60498  97.3922 274.0580 0004479 168.9688 191.1651 15.30236606105885
NUSAT-49 (KLARA DAN VO*)
1 60500U 24149AJ  26192.78920024  .00005194  00000+0  17958-3 0  9994
2 60500  97.3781 273.9113 0002126 172.2733 187.8541 15.30346061105896
NUSAT-45 (UZMASAT-1)    
1 62640U 25009AH  26193.17054627  .00005241  00000+0  18116-3 0  9998
2 62640  97.3595 274.1461 0001536 186.7657 173.3563 15.30348660 82743
NUSAT-52                
1 66692U 25276AC  26192.77080338  .00002959  00000+0  14050-3 0  9994
2 66692  97.4204 265.9125 0001677 303.5612  56.5463 15.20016429 34150
NUSAT-51 (YVONNE BRILL) 
1 66740U 25276CC  26193.36543493  .00003539  00000+0  16488-3 0  9992
2 66740  97.4209 266.6380 0001603 254.3904 105.7154 15.20545817 34259
