{"fetched_at":"2026-07-12T17:32:55.584Z","source":"https://celestrak.org/NORAD/elements/gp.php?NAME=NUSAT&FORMAT=JSON","constellation":"satellogic","records":[{"OBJECT_NAME":"NUSAT-26 (M SOMERVILLE)","OBJECT_ID":"2022-033AD","EPOCH":"2026-07-12T11:22:48.191232","CLASSIFICATION_TYPE":"U","MEAN_MOTION":15.43184309,"ECCENTRICITY":0.0006863,"INCLINATION":97.2347,"RA_OF_ASC_NODE":272.3722,"ARG_OF_PERICENTER":145.711,"MEAN_ANOMALY":214.4582,"EPHEMERIS_TYPE":0,"NORAD_CAT_ID":52184,"ELEMENT_SET_NO":999,"REV_AT_EPOCH":10860,"BSTAR":0.00036893,"MEAN_MOTION_DOT":0.00016301,"MEAN_MOTION_DDOT":0},{"OBJECT_NAME":"NUSAT-33 (ALBANIA-2)","OBJECT_ID":"2023-001AQ","EPOCH":"2026-07-12T10:08:07.514016","CLASSIFICATION_TYPE":"U","MEAN_MOTION":15.2823481,"ECCENTRICITY":0.0005038,"INCLINATION":97.3064,"RA_OF_ASC_NODE":253.8452,"ARG_OF_PERICENTER":327.2798,"MEAN_ANOMALY":32.8129,"EPHEMERIS_TYPE":0,"NORAD_CAT_ID":55047,"ELEMENT_SET_NO":999,"REV_AT_EPOCH":19616,"BSTAR":0.00019683,"MEAN_MOTION_DOT":0.00005343,"MEAN_MOTION_DDOT":0},{"OBJECT_NAME":"NUSAT-35 (WILLIAMINA)","OBJECT_ID":"2023-001AR","EPOCH":"2026-07-12T12:22:11.354016","CLASSIFICATION_TYPE":"U","MEAN_MOTION":15.35779407,"ECCENTRICITY":0.001078,"INCLINATION":97.1844,"RA_OF_ASC_NODE":245.6299,"ARG_OF_PERICENTER":19.7103,"MEAN_ANOMALY":340.4556,"EPHEMERIS_TYPE":0,"NORAD_CAT_ID":55048,"ELEMENT_SET_NO":999,"REV_AT_EPOCH":19629,"BSTAR":0.00023905,"MEAN_MOTION_DOT":0.00008258,"MEAN_MOTION_DDOT":0},{"OBJECT_NAME":"NUSAT-39 (TIKVAH ALPER)","OBJECT_ID":"2023-054Z","EPOCH":"2026-07-12T12:37:02.792928","CLASSIFICATION_TYPE":"U","MEAN_MOTION":15.4792191,"ECCENTRICITY":0.0002258,"INCLINATION":97.3103,"RA_OF_ASC_NODE":103.5315,"ARG_OF_PERICENTER":338.4174,"MEAN_ANOMALY":21.6981,"EPHEMERIS_TYPE":0,"NORAD_CAT_ID":56201,"ELEMENT_SET_NO":999,"REV_AT_EPOCH":18237,"BSTAR":0.00034885,"MEAN_MOTION_DOT":0.00018107,"MEAN_MOTION_DDOT":0},{"OBJECT_NAME":"NUSAT-38 (MARIA AGNESI)","OBJECT_ID":"2023-054AA","EPOCH":"2026-07-12T12:37:26.515776","CLASSIFICATION_TYPE":"U","MEAN_MOTION":15.51082439,"ECCENTRICITY":0.0009192,"INCLINATION":97.3041,"RA_OF_ASC_NODE":104.2568,"ARG_OF_PERICENTER":338.8585,"MEAN_ANOMALY":21.2286,"EPHEMERIS_TYPE":0,"NORAD_CAT_ID":56202,"ELEMENT_SET_NO":999,"REV_AT_EPOCH":18243,"BSTAR":0.00039309,"MEAN_MOTION_DOT":0.00022863,"MEAN_MOTION_DDOT":0},{"OBJECT_NAME":"NUSAT-37 (JOAN CLARKE)","OBJECT_ID":"2023-054AB","EPOCH":"2026-07-12T12:49:22.592928","CLASSIFICATION_TYPE":"U","MEAN_MOTION":15.59434033,"ECCENTRICITY":0.0007495,"INCLINATION":97.2613,"RA_OF_ASC_NODE":101.1265,"ARG_OF_PERICENTER":151.4608,"MEAN_ANOMALY":208.706,"EPHEMERIS_TYPE":0,"NORAD_CAT_ID":56203,"ELEMENT_SET_NO":999,"REV_AT_EPOCH":18259,"BSTAR":0.00044684,"MEAN_MOTION_DOT":0.00035358,"MEAN_MOTION_DDOT":0},{"OBJECT_NAME":"NUSAT-40 (C SHOEMAKER)","OBJECT_ID":"2023-084M","EPOCH":"2026-07-12T07:32:33.493920","CLASSIFICATION_TYPE":"U","MEAN_MOTION":15.81814758,"ECCENTRICITY":0.0004158,"INCLINATION":97.4851,"RA_OF_ASC_NODE":341.9228,"ARG_OF_PERICENTER":191.8305,"MEAN_ANOMALY":168.2866,"EPHEMERIS_TYPE":0,"NORAD_CAT_ID":56943,"ELEMENT_SET_NO":999,"REV_AT_EPOCH":17277,"BSTAR":0.0005485,"MEAN_MOTION_DOT":0.00111311,"MEAN_MOTION_DDOT":0},{"OBJECT_NAME":"NUSAT-41 (C PAYNE-G)","OBJECT_ID":"2023-084N","EPOCH":"2026-07-12T13:35:54.163104","CLASSIFICATION_TYPE":"U","MEAN_MOTION":15.30118886,"ECCENTRICITY":0.0006262,"INCLINATION":97.554,"RA_OF_ASC_NODE":330.6908,"ARG_OF_PERICENTER":221.4213,"MEAN_ANOMALY":138.6553,"EPHEMERIS_TYPE":0,"NORAD_CAT_ID":56944,"ELEMENT_SET_NO":999,"REV_AT_EPOCH":17166,"BSTAR":0.00023116,"MEAN_MOTION_DOT":0.00006662,"MEAN_MOTION_DDOT":0},{"OBJECT_NAME":"NUSAT-42 (M WONENBURGER)","OBJECT_ID":"2023-084AL","EPOCH":"2026-07-12T11:23:29.157792","CLASSIFICATION_TYPE":"U","MEAN_MOTION":15.46431425,"ECCENTRICITY":0.0006629,"INCLINATION":97.5737,"RA_OF_ASC_NODE":338.6696,"ARG_OF_PERICENTER":154.6854,"MEAN_ANOMALY":205.4721,"EPHEMERIS_TYPE":0,"NORAD_CAT_ID":56966,"ELEMENT_SET_NO":999,"REV_AT_EPOCH":17198,"BSTAR":0.00028185,"MEAN_MOTION_DOT":0.00013876,"MEAN_MOTION_DDOT":0},{"OBJECT_NAME":"NUSAT-44 (MARIA MITCHELL)","OBJECT_ID":"2024-043AA","EPOCH":"2026-07-12T12:31:30.717984","CLASSIFICATION_TYPE":"U","MEAN_MOTION":15.29815833,"ECCENTRICITY":0.0006328,"INCLINATION":97.5472,"RA_OF_ASC_NODE":334.1725,"ARG_OF_PERICENTER":139.213,"MEAN_ANOMALY":220.9584,"EPHEMERIS_TYPE":0,"NORAD_CAT_ID":59122,"ELEMENT_SET_NO":999,"REV_AT_EPOCH":13114,"BSTAR":0.0002248,"MEAN_MOTION_DOT":0.00006416,"MEAN_MOTION_DDOT":0},{"OBJECT_NAME":"NUSAT-50 (NANCY ROMAN)","OBJECT_ID":"2024-149AB","EPOCH":"2026-07-11T18:12:02.107008","CLASSIFICATION_TYPE":"U","MEAN_MOTION":15.30280412,"ECCENTRICITY":0.00047973,"INCLINATION":97.3788,"RA_OF_ASC_NODE":273.8483,"ARG_OF_PERICENTER":109.7842,"MEAN_ANOMALY":250.3916,"EPHEMERIS_TYPE":0,"NORAD_CAT_ID":60493,"ELEMENT_SET_NO":999,"REV_AT_EPOCH":10588,"BSTAR":0.00019286784,"MEAN_MOTION_DOT":0.00005574,"MEAN_MOTION_DDOT":0},{"OBJECT_NAME":"NUSAT-48 (HENRIETTA LEAVITT)","OBJECT_ID":"2024-149AG","EPOCH":"2026-07-11T16:21:54.724896","CLASSIFICATION_TYPE":"U","MEAN_MOTION":15.30236606,"ECCENTRICITY":0.00044793,"INCLINATION":97.3922,"RA_OF_ASC_NODE":274.058,"ARG_OF_PERICENTER":168.9688,"MEAN_ANOMALY":191.1651,"EPHEMERIS_TYPE":0,"NORAD_CAT_ID":60498,"ELEMENT_SET_NO":999,"REV_AT_EPOCH":10588,"BSTAR":0.00017321815,"MEAN_MOTION_DOT":0.00004991,"MEAN_MOTION_DDOT":0},{"OBJECT_NAME":"NUSAT-49 (KLARA DAN VON NEUMANN)","OBJECT_ID":"2024-149AJ","EPOCH":"2026-07-11T18:56:26.900736","CLASSIFICATION_TYPE":"U","MEAN_MOTION":15.30346061,"ECCENTRICITY":0.00021268,"INCLINATION":97.3781,"RA_OF_ASC_NODE":273.9113,"ARG_OF_PERICENTER":172.2733,"MEAN_ANOMALY":187.8541,"EPHEMERIS_TYPE":0,"NORAD_CAT_ID":60500,"ELEMENT_SET_NO":999,"REV_AT_EPOCH":10589,"BSTAR":0.00017957643,"MEAN_MOTION_DOT":0.00005194,"MEAN_MOTION_DDOT":0},{"OBJECT_NAME":"NUSAT-45 (UZMASAT-1)","OBJECT_ID":"2025-009AH","EPOCH":"2026-07-12T04:05:35.197728","CLASSIFICATION_TYPE":"U","MEAN_MOTION":15.3034866,"ECCENTRICITY":0.0001536,"INCLINATION":97.3595,"RA_OF_ASC_NODE":274.1461,"ARG_OF_PERICENTER":186.7657,"MEAN_ANOMALY":173.3563,"EPHEMERIS_TYPE":0,"NORAD_CAT_ID":62640,"ELEMENT_SET_NO":999,"REV_AT_EPOCH":8274,"BSTAR":0.00018116196,"MEAN_MOTION_DOT":0.00005241,"MEAN_MOTION_DDOT":0},{"OBJECT_NAME":"NUSAT-52","OBJECT_ID":"2025-276AC","EPOCH":"2026-07-11T18:29:57.412032","CLASSIFICATION_TYPE":"U","MEAN_MOTION":15.20016429,"ECCENTRICITY":0.00016773,"INCLINATION":97.4204,"RA_OF_ASC_NODE":265.9125,"ARG_OF_PERICENTER":303.5612,"MEAN_ANOMALY":56.5463,"EPHEMERIS_TYPE":0,"NORAD_CAT_ID":66692,"ELEMENT_SET_NO":999,"REV_AT_EPOCH":3415,"BSTAR":0.00014050375,"MEAN_MOTION_DOT":0.00002959,"MEAN_MOTION_DDOT":0},{"OBJECT_NAME":"NUSAT-51 (YVONNE BRILL)","OBJECT_ID":"2025-276CC","EPOCH":"2026-07-12T08:46:13.577952","CLASSIFICATION_TYPE":"U","MEAN_MOTION":15.20545817,"ECCENTRICITY":0.0001603,"INCLINATION":97.4209,"RA_OF_ASC_NODE":266.638,"ARG_OF_PERICENTER":254.3904,"MEAN_ANOMALY":105.7154,"EPHEMERIS_TYPE":0,"NORAD_CAT_ID":66740,"ELEMENT_SET_NO":999,"REV_AT_EPOCH":3425,"BSTAR":0.00016488,"MEAN_MOTION_DOT":0.00003539,"MEAN_MOTION_DDOT":0}]}
